EUTELSAT 7A             
1 28187U 04008A   25251.69350252  .00000103  00000+0  00000+0 0  9997
2 28187   5.1090  75.3626 0001708 145.1907 237.9248  1.00272081 78534
EUTELSAT 174A           
1 28924U 05052A   25251.83912463  .00000009  00000+0  00000+0 0  9995
2 28924   3.4999  80.0229 0006159  89.8206 294.3742  1.00271320 49512
EUTELSAT HOTBIRD 13B    
1 29270U 06032A   25251.88254481  .00000154  00000+0  00000+0 0  9994
2 29270   0.9284  85.3738 0003991  78.2363 175.3741  1.00271468 44487
EUTELSAT HOTBIRD 13C    
1 33459U 08065A   25251.87353145 -.00000101  00000+0  00000+0 0  9995
2 33459   2.2206  82.5415 0004412 108.9394  98.6820  1.00271469 44526
EUTELSAT 36B            
1 36101U 09065A   25251.81465009  .00000110  00000+0  00000+0 0  9999
2 36101   0.0549 354.7514 0005917 178.3289 158.8087  1.00273327 57880
EUTELSAT KA-SAT 9A      
1 37258U 10069A   25251.66369529  .00000059  00000+0  00000+0 0  9994
2 37258   0.0553 324.2455 0003375 174.9106  96.7440  1.00271679 41188
EUTELSAT 7 WEST A       
1 37816U 11051A   25251.87457145 -.00000062  00000+0  00000+0 0  9996
2 37816   0.0647 353.6133 0005939 183.6946 118.4051  1.00270943 51069
EUTELSAT 16A            
1 37836U 11057A   25251.83933527  .00000102  00000+0  00000+0 0  9997
2 37836   0.0650 351.5887 0005403 174.7178 139.9819  1.00271153  4503
